[{"OBJECT_NAME":"CUPID","OBJECT_ID":"2021-088E","EPOCH":"2026-03-09T16:04:42.796128","MEAN_MOTION":15.24473777,"ECCENTRICITY":0.0013746,"INCLINATION":97.3985,"RA_OF_ASC_NODE":131.0756,"ARG_OF_PERICENTER":59.9938,"MEAN_ANOMALY":300.2662,"EPHEMERIS_TYPE":0,"CLASSIFICATION_TYPE":"U","NORAD_CAT_ID":49264,"ELEMENT_SET_NO":999,"REV_AT_EPOCH":24501,"BSTAR":0.00038662302,"MEAN_MOTION_DOT":9.454e-5,"MEAN_MOTION_DDOT":0},{"OBJECT_NAME":"STARLINK-31110","OBJECT_ID":"2023-211N","EPOCH":"2026-03-09T09:49:13.803456","MEAN_MOTION":15.27582049,"ECCENTRICITY":0.00014537,"INCLINATION":42.9986,"RA_OF_ASC_NODE":86.6941,"ARG_OF_PERICENTER":282.2716,"MEAN_ANOMALY":77.7973,"EPHEMERIS_TYPE":0,"CLASSIFICATION_TYPE":"U","NORAD_CAT_ID":58679,"ELEMENT_SET_NO":999,"REV_AT_EPOCH":12242,"BSTAR":1.3471105e-5,"MEAN_MOTION_DOT":1.09e-6,"MEAN_MOTION_DDOT":0}]
